{
  "norad_id": 39260,
  "name": "FENGYUN 3C",
  "history": [
    {
      "epoch": "2026-03-28T21:35:04.952832Z",
      "apogee_km": 849.5686825409621,
      "perigee_km": 830.057552859801,
      "latitude_deg": 4.055642440624914e-05,
      "longitude_deg": -84.59383125452598,
      "height_km": 845.4993918810065,
      "semi_major_axis_km": 7217.950117700381,
      "eccentricity": 0.00135157,
      "inclination_deg": 98.4924,
      "raan_deg": 65.49,
      "arg_perigee_deg": 253.546,
      "mean_anomaly_deg": 106.423,
      "mean_motion_rev_day": 14.1573493
    },
    {
      "epoch": "2026-03-29T04:22:10.104096Z",
      "apogee_km": 849.5689912247926,
      "perigee_km": 830.0559865764981,
      "latitude_deg": -6.280397985749011e-05,
      "longitude_deg": 173.62558018428314,
      "height_km": 845.6476118827422,
      "semi_major_axis_km": 7217.949488900645,
      "eccentricity": 0.0013517,
      "inclination_deg": 98.4924,
      "raan_deg": 65.7595,
      "arg_perigee_deg": 252.6343,
      "mean_anomaly_deg": 107.3353,
      "mean_motion_rev_day": 14.15735115
    },
    {
      "epoch": "2026-03-30T04:06:58.126176Z",
      "apogee_km": 849.5794372047148,
      "perigee_km": 830.043338098697,
      "latitude_deg": 5.157842754444075e-05,
      "longitude_deg": 177.3933306108328,
      "height_km": 846.1560281445144,
      "semi_major_axis_km": 7217.948387651706,
      "eccentricity": 0.0013533,
      "inclination_deg": 98.4926,
      "raan_deg": 66.7026,
      "arg_perigee_deg": 249.4968,
      "mean_anomaly_deg": 110.4755,
      "mean_motion_rev_day": 14.15735439
    },
    {
      "epoch": "2026-03-30T05:48:44.415072Z",
      "apogee_km": 849.5800977362678,
      "perigee_km": 830.0425552061761,
      "latitude_deg": 5.325996784597159e-05,
      "longitude_deg": 151.94819993885847,
      "height_km": 846.191181337368,
      "semi_major_axis_km": 7217.948326471222,
      "eccentricity": 0.0013534,
      "inclination_deg": 98.4926,
      "raan_deg": 66.77,
      "arg_perigee_deg": 249.2778,
      "mean_anomaly_deg": 110.6947,
      "mean_motion_rev_day": 14.15735457
    },
    {
      "epoch": "2026-03-30T14:17:35.843136Z",
      "apogee_km": 849.5824845986126,
      "perigee_km": 830.0391690626866,
      "latitude_deg": -1.0535845273926823e-05,
      "longitude_deg": 24.722425890636515,
      "height_km": 846.3704618423545,
      "semi_major_axis_km": 7217.947826830649,
      "eccentricity": 0.0013538,
      "inclination_deg": 98.4922,
      "raan_deg": 67.1068,
      "arg_perigee_deg": 248.1534,
      "mean_anomaly_deg": 111.8201,
      "mean_motion_rev_day": 14.15735604
    },
    {
      "epoch": "2026-03-30T22:46:27.271200Z",
      "apogee_km": 849.5881433615732,
      "perigee_km": 830.032558603556,
      "latitude_deg": 4.578626421473299e-05,
      "longitude_deg": -102.50336599863807,
      "height_km": 846.5453616902631,
      "semi_major_axis_km": 7217.947350982565,
      "eccentricity": 0.00135465,
      "inclination_deg": 98.4926,
      "raan_deg": 67.4436,
      "arg_perigee_deg": 247.0567,
      "mean_anomaly_deg": 112.9179,
      "mean_motion_rev_day": 14.15735744
    },
    {
      "epoch": "2026-03-31T20:49:28.972416Z",
      "apogee_km": 849.6051536813329,
      "perigee_km": 830.0127611744911,
      "latitude_deg": -2.8524687832376073e-06,
      "longitude_deg": -73.2902266267536,
      "height_km": 846.99792662509,
      "semi_major_axis_km": 7217.945957427912,
      "eccentricity": 0.0013572,
      "inclination_deg": 98.4924,
      "raan_deg": 68.3194,
      "arg_perigee_deg": 244.1886,
      "mean_anomaly_deg": 115.7889,
      "mean_motion_rev_day": 14.15736154
    },
    {
      "epoch": "2026-04-01T20:34:16.961664Z",
      "apogee_km": 849.621251234078,
      "perigee_km": 829.9956575435963,
      "latitude_deg": 5.2603626736437275e-05,
      "longitude_deg": -69.5221296446506,
      "height_km": 847.465134776815,
      "semi_major_axis_km": 7217.945454388837,
      "eccentricity": 0.0013595,
      "inclination_deg": 98.4925,
      "raan_deg": 69.2627,
      "arg_perigee_deg": 241.163,
      "mean_anomaly_deg": 118.8181,
      "mean_motion_rev_day": 14.15736302
    }
  ]
}